ONEWEB-0627             
1 55168U 23004AE  23169.91667824  .00000015  00000+0  00000+0 0  9992
2 55168  87.5528 223.8307 0002815 106.3109 280.8869 13.67087628 23322
ONEWEB-0628             
1 55169U 23004AF  23169.60398814  .00000782  00000+0  13889-3 0  9993
2 55169  86.6319 218.7974 0006823  71.6893 288.5063 14.65913941 23619
ONEWEB-0629             
1 55170U 23004AG  23169.84259086 -.00257283  00000+0 -27880+0 0  9992
2 55170  87.4539 224.0218 0017144  56.5560 303.7240 13.74891522 23308
ONEWEB-0631             
1 55171U 23004AH  23169.40821542  .00001103  00000+0  19736-3 0  9998
2 55171  86.6311 218.8818 0004229  89.5243 270.6455 14.65966716 23588
ONEWEB-0709             
1 55172U 23004AJ  23169.45594582  .00000054  00000+0  96107-4 0  9997
2 55172  87.9465 238.6226 0001997 100.7153 259.4208 13.24236955 22322
ONEWEB-0710             
1 55173U 23004AK  23169.91667824  .00000016  00000+0  00000+0 0  9999
2 55173  87.5414 223.9135 0017095  60.8485 228.2490 13.68974264 23316
ONEWEB-0711             
1 55174U 23004AL  23169.60171214 -.00000004  00000+0 -39111-4 0  9998
2 55174  87.9454 238.5520 0002487  99.2848 260.8569 13.24426979 22318
ONEWEB-0713             
1 55175U 23004AM  23169.46385888  .00000141  00000+0  29860-3 0  9996
2 55175  87.9411 238.5743 0002267 109.5314 250.6066 13.24028128 22287
ONEWEB-0715             
1 55176U 23004AN  23169.14017593  .00000114  00000+0  23564-3 0  9992
2 55176  87.9442 238.6847 0001916 110.0931 250.0410 13.24324426 22287
ONEWEB-0716             
1 55177U 23004AP  23169.91667824  .00000015  00000+0  00000+0 0  9992
2 55177  87.5427 223.9083 0016005  58.0193 290.0062 13.68256871  1305
ONEWEB-0717             
1 55178U 23004AQ  23169.91667824 -.00845049  00000+0 -97479+0 0  9995
2 55178  87.5648 223.2323 0010876  49.2707  42.9476 13.72520611  1308
ONEWEB-0719             
1 55179U 23004AR  23169.91667824  .00000015  00000+0  00000+0 0  9994
2 55179  87.5389 223.8358 0004967  49.1904 224.6976 13.68571855  1302
ONEWEB-0530             
1 55796U 23029A   23169.66351390  .00002305  00000+0  22413-3 0  9996
2 55796  86.5066 154.6224 0004440 100.2351 259.9378 14.92099181 15040
ONEWEB-0534             
1 55797U 23029B   23169.66698467  .00008066  00000+0  79220-3 0  9994
2 55797  86.5019 154.5649 0004812  99.9953 260.1818 14.92044389 15047
ONEWEB-0556             
1 55798U 23029C   23169.45664338  .00002731  00000+0  26557-3 0  9990
2 55798  86.5058 154.6964 0004192  84.6748 275.4958 14.92183557 15018
ONEWEB-0562             
1 55799U 23029D   23169.47317452  .00002482  00000+0  24261-3 0  9998
2 55799  86.5022 154.6611 0004565  91.2808 268.8943 14.91934354 15012
ONEWEB-0563             
1 55800U 23029E   23169.66855454  .00002276  00000+0  22179-3 0  9998
2 55800  86.5070 154.6276 0004374 103.3062 256.8654 14.92023214 15044
ONEWEB-0564             
1 55801U 23029F   23169.45846946  .00002670  00000+0  25974-3 0  9996
2 55801  86.5026 154.6575 0004166  85.7838 274.3865 14.92157276 15013
ONEWEB-0638             
1 55802U 23029G   23169.91667824 -.01025927  00000+0 -22370+0 0  9990
2 55802  86.7677 154.8392 0004467  96.6409 323.2618 14.61139489  1305
ONEWEB-0639             
1 55803U 23029H   23169.91667824  .00000014  00000+0  00000+0 0  9994
2 55803  87.7250 162.8243 0005447 247.6916 260.5592 13.48386459  1307
ONEWEB-0640             
1 55804U 23029J   23169.91667824 -.00950514  00000+0 -21648+0 0  9997
2 55804  86.7843 154.9106 0005652 113.2227 175.5845 14.58919289  1307
ONEWEB-0641             
1 55805U 23029K   23169.91667824  .00000014  00000+0  00000+0 0  9996
2 55805  87.7147 162.8689 0011907 264.3698 207.9341 13.48534938  1303
ONEWEB-0642             
1 55806U 23029L   23169.91667824  .00000014  00000+0  00000+0 0  9997
2 55806  87.7685 162.6157 0006581 237.9970 127.2617 13.44473954  1306
ONEWEB-0643             
1 55807U 23029M   23169.91667824 -.00995800  00000+0 -23314+0 0  9999
2 55807  86.7899 154.9303 0002933  67.7030  93.4148 14.57811478  1308
ONEWEB-0644             
1 55808U 23029N   23169.91667824  .00000014  00000+0  00000+0 0  9999
2 55808  87.7070 162.8510 0006171 262.3912 201.0818 13.50872973  1309
ONEWEB-0645             
1 55809U 23029P   23169.91667824  .00000014  00000+0  00000+0 0  9990
2 55809  87.7338 162.8043 0007781 272.3254 317.8589 13.48005899  1309
ONEWEB-0646             
1 55810U 23029Q   23169.91667824  .00000014  00000+0  00000+0 0  9992
2 55810  87.7380 162.8039 0006708 251.6115 155.2563 13.45287459  1304
ONEWEB-0648             
1 55811U 23029R   23169.91667824 -.01009833  00000+0 -22309+0 0  9990
2 55811  86.7704 154.8616 0004061 108.7963 239.2275 14.60499566  1304
ONEWEB-0649             
1 55812U 23029S   23169.91667824  .00000014  00000+0  00000+0 0  9994
2 55812  87.7384 162.8455 0010058 251.0080 221.1532 13.50444163  1302
ONEWEB-0650             
1 55813U 23029T   23169.91667824  .00000014  00000+0  00000+0 0  9995
2 55813  87.7164 162.8321 0007970 239.8063   3.9376 13.50920003  1309
ONEWEB-0652             
1 55814U 23029U   23169.91667824 -.01226614  00000+0 -30774+0 0  9996
2 55814  86.7705 154.9449 0001798  85.0379   4.6453 14.54771449  1303
ONEWEB-0653             
1 55815U 23029V   23169.91667824 -.01020419  00000+0 -22822+0 0  9997
2 55815  86.7754 154.8820 0004301  92.4978 192.0881 14.59970780  1301
ONEWEB-0654             
1 55816U 23029W   23169.91667824 -.01001318  00000+0 -20922+0 0  9994
2 55816  86.7527 154.7967 0005164  93.2207 120.6031 14.62985685  1301
ONEWEB-0656             
1 55817U 23029X   23169.70949297  .00003251  00000+0  30691-3 0  9992
2 55817  86.5034 154.4715 0003941  93.1476 267.0203 14.93429696 15063
ONEWEB-0657             
1 55818U 23029Y   23169.91667824  .00000015  00000+0  00000+0 0  9991
2 55818  87.6513 162.9725 0011139 259.1789  74.5069 13.56048645  1304
ONEWEB-0658             
1 55819U 23029Z   23169.91667824  .00000014  00000+0  00000+0 0  9991
2 55819  87.7068 162.8283 0007615 238.6445 298.9249 13.51445144  1306
ONEWEB-0660             
1 55820U 23029AA  23169.91667824 -.01009953  00000+0 -22388+0 0  9990
2 55820  86.7717 154.8713 0003948  77.3746 242.4177 14.60345343  1309
ONEWEB-0661             
1 55821U 23029AB  23169.91667824 -.01020281  00000+0 -23385+0 0  9996
2 55821  86.7848 154.8613 0004719  82.6598 312.0899 14.58849766  1305
ONEWEB-0662             
1 55822U 23029AC  23169.91667824 -.00973780  00000+0 -20729+0 0  9996
2 55822  86.7649 154.8584 0004745  77.1341 299.0428 14.62066283  1308
ONEWEB-0663             
1 55823U 23029AD  23169.71457938  .00000080  00000+0  47218-5 0  9998
2 55823  86.5059 154.4993 0004745  91.0848 269.0924 14.93337384 15062
ONEWEB-0664             
1 55824U 23029AE  23169.45518402  .00002842  00000+0  26936-3 0  9994
2 55824  86.5027 154.5890 0003777 103.7146 256.4503 14.93216729 15029
ONEWEB-0665             
1 55825U 23029AF  23169.91667824 -.01022097  00000+0 -22334+0 0  9990
2 55825  86.7658 154.8254 0002610  66.9815  49.9938 14.61042292  1307
ONEWEB-0666             
1 55826U 23029AG  23169.44982210 -.00001033  00000+0 -10168-3 0  9990
2 55826  86.5058 154.6256 0003432  93.6270 266.5351 14.93307091 15021
ONEWEB-0667             
1 55827U 23029AH  23169.70813085  .00003131  00000+0  29533-3 0  9998
2 55827  86.5042 154.4807 0003804 100.1959 259.9699 14.93450106 15067
ONEWEB-0669             
1 55828U 23029AJ  23169.71231895  .00002964  00000+0  27989-3 0  9999
2 55828  86.5033 154.4716 0004046  78.6885 281.4798 14.93384134 15060
ONEWEB-0670             
1 55829U 23029AK  23169.91667824 -.01026671  00000+0 -22850+0 0  9999
2 55829  86.7766 154.8529 0003495  80.9444  27.7603 14.60216936  1302
ONEWEB-0671             
1 55830U 23029AL  23169.91667824  .00000014  00000+0  00000+0 0  9994
2 55830  87.7257 162.8134 0009693 245.2729 322.9941 13.46946077  1303
ONEWEB-0672             
1 55831U 23029AM  23169.71546644  .00002888  00000+0  27296-3 0  9990
2 55831  86.5029 154.4654 0004428  94.4360 265.7374 14.93336927 15060
ONEWEB-0673             
1 55832U 23029AN  23169.91667824  .00000014  00000+0  00000+0 0  9996
2 55832  87.7195 162.9092 0006527 237.9320  71.7543 13.47363555  1300
ONEWEB-0674             
1 55833U 23029AP  23169.91667824 -.00975947  00000+0 -20775+0 0  9996
2 55833  86.7603 154.8166 0005825  82.0249 124.2298 14.62065706  1301
ONEWEB-0675             
1 55834U 23029AQ  23169.91667824  .00000014  00000+0  00000+0 0  9998
2 55834  87.7087 162.7539 0008545 241.1966 318.3156 13.54332565  1306
ONEWEB-0720             
1 55835U 23029AR  23169.91667824  .00000014  00000+0  00000+0 0  9999
2 55835  87.6894 162.8985 0010041 257.9293 112.5785 13.46518548  1300
ONEWEB-0537             
1 56046U 23043A   23169.56383839  .00003351  00000+0  35749-3 0  9991
2 56046  86.8968 110.6458 0004673  45.5096 314.6512 14.88553309 12700
ONEWEB-0538             
1 56047U 23043B   23169.82355667  .00003248  00000+0  34616-3 0  9996
2 56047  86.9010 110.5722 0004650  62.1127 298.0570 14.88578624 12748
ONEWEB-0546             
1 56048U 23043C   23169.79570583  .00004423  00000+0  47300-3 0  9999
2 56048  86.8944 110.5635 0002530 127.3939 232.7518 14.88541078 12747
ONEWEB-0547             
1 56049U 23043D   23169.55093400  .00002932  00000+0  31232-3 0  9992
2 56049  86.9935 111.3097 0004495  55.1341 305.0308 14.88568964 12707
ONEWEB-0548             
1 56050U 23043E   23169.58105249  .00003555  00000+0  38011-3 0  9996
2 56050  86.9027 110.6803 0002761 110.3886 249.7637 14.88488700 12708
ONEWEB-0549             
1 56051U 23043F   23169.82151717  .00003110  00000+0  33136-3 0  9995
2 56051  86.9963 111.2261 0004278  49.8798 310.2803 14.88578475 12748
ONEWEB-0550             
1 56052U 23043G   23169.78309907  .00003611  00000+0  38548-3 0  9995
2 56052  86.9952 111.2368 0004374  44.4097 315.7479 14.88554166 12734
